{
  "type": "Feature",
  "properties": {
    "name": "충청도",
    "key": "충청",
    "source": "simplified-approximation",
    "note": "sgis.kostat.go.kr 공식 데이터 교체 권장"
  },
  "geometry": {
    "type": "Polygon",
    "coordinates": [
      [
        [
          126.82,
          36.95
        ],
        [
          126.95,
          36.92
        ],
        [
          127.1,
          36.94
        ],
        [
          127.28,
          37
        ],
        [
          127.45,
          37.08
        ],
        [
          127.6,
          37.05
        ],
        [
          127.85,
          36.95
        ],
        [
          128.05,
          36.7
        ],
        [
          128.15,
          36.5
        ],
        [
          128.05,
          36.25
        ],
        [
          127.8,
          36.1
        ],
        [
          127.5,
          36.05
        ],
        [
          127.25,
          36
        ],
        [
          127,
          36.05
        ],
        [
          126.8,
          36.1
        ],
        [
          126.6,
          36.2
        ],
        [
          126.45,
          36.4
        ],
        [
          126.35,
          36.6
        ],
        [
          126.4,
          36.8
        ],
        [
          126.55,
          36.9
        ],
        [
          126.7,
          36.95
        ],
        [
          126.82,
          36.95
        ]
      ]
    ]
  }
}