{
  "type": "Feature",
  "properties": {
    "name": "강원도",
    "key": "강원",
    "source": "simplified-approximation",
    "note": "sgis.kostat.go.kr 공식 데이터 교체 권장"
  },
  "geometry": {
    "type": "Polygon",
    "coordinates": [
      [
        [
          127.15,
          38.16
        ],
        [
          127.35,
          38.24
        ],
        [
          127.55,
          38.27
        ],
        [
          127.75,
          38.22
        ],
        [
          127.9,
          38.1
        ],
        [
          128.2,
          38.3
        ],
        [
          128.45,
          38.3
        ],
        [
          128.6,
          38.2
        ],
        [
          129.05,
          37.9
        ],
        [
          129.3,
          37.5
        ],
        [
          129.45,
          37.3
        ],
        [
          129.3,
          37.05
        ],
        [
          129.05,
          37.15
        ],
        [
          128.6,
          37.3
        ],
        [
          128.3,
          37.2
        ],
        [
          128.05,
          36.95
        ],
        [
          127.85,
          36.95
        ],
        [
          127.75,
          37.45
        ],
        [
          127.85,
          37.58
        ],
        [
          127.9,
          37.7
        ],
        [
          127.95,
          37.85
        ],
        [
          127.9,
          38.1
        ],
        [
          127.75,
          38.22
        ],
        [
          127.55,
          38.27
        ],
        [
          127.15,
          38.16
        ]
      ]
    ]
  }
}