{
  "type": "Feature",
  "properties": {
    "name": "경상도",
    "key": "경상",
    "source": "simplified-approximation",
    "note": "sgis.kostat.go.kr 공식 데이터 교체 권장"
  },
  "geometry": {
    "type": "Polygon",
    "coordinates": [
      [
        [
          128.05,
          36.95
        ],
        [
          128.3,
          37.2
        ],
        [
          128.6,
          37.3
        ],
        [
          129.05,
          37.15
        ],
        [
          129.3,
          37.05
        ],
        [
          129.45,
          36.8
        ],
        [
          129.5,
          36.5
        ],
        [
          129.45,
          36.1
        ],
        [
          129.2,
          35.6
        ],
        [
          129.05,
          35.35
        ],
        [
          129.1,
          35.2
        ],
        [
          128.85,
          34.95
        ],
        [
          128.6,
          34.88
        ],
        [
          128.3,
          34.8
        ],
        [
          128,
          34.9
        ],
        [
          127.75,
          34.95
        ],
        [
          127.5,
          35
        ],
        [
          127.2,
          35.1
        ],
        [
          127,
          35.2
        ],
        [
          126.9,
          35.4
        ],
        [
          127.1,
          35.7
        ],
        [
          127.3,
          35.9
        ],
        [
          127.5,
          36.1
        ],
        [
          127.75,
          36.2
        ],
        [
          128,
          36.3
        ],
        [
          128.2,
          36.5
        ],
        [
          128.05,
          36.95
        ]
      ]
    ]
  }
}