{
  "type": "Feature",
  "properties": {
    "name": "경기도",
    "key": "경기"
  },
  "geometry": {
    "type": "Polygon",
    "coordinates": [
      [
        [
          126.396,
          37.615
        ],
        [
          126.358,
          37.726
        ],
        [
          126.454,
          37.988
        ],
        [
          126.764,
          37.995
        ],
        [
          126.988,
          38.13
        ],
        [
          127.152,
          38.27
        ],
        [
          127.5,
          38.248
        ],
        [
          127.882,
          37.882
        ],
        [
          127.882,
          37.581
        ],
        [
          127.58,
          37.344
        ],
        [
          127.401,
          37.095
        ],
        [
          127.087,
          36.93
        ],
        [
          126.801,
          36.949
        ],
        [
          126.552,
          37.075
        ],
        [
          126.402,
          37.281
        ],
        [
          126.372,
          37.425
        ],
        [
          126.396,
          37.615
        ]
      ]
    ]
  }
}