{
  "type": "Feature",
  "properties": {
    "name": "인천광역시",
    "key": "인천"
  },
  "geometry": {
    "type": "Polygon",
    "coordinates": [
      [
        [
          126.358,
          37.726
        ],
        [
          126.454,
          37.988
        ],
        [
          126.764,
          37.995
        ],
        [
          126.82,
          37.87
        ],
        [
          126.8,
          37.72
        ],
        [
          126.71,
          37.65
        ],
        [
          126.58,
          37.52
        ],
        [
          126.45,
          37.45
        ],
        [
          126.32,
          37.5
        ],
        [
          126.22,
          37.42
        ],
        [
          126.15,
          37.33
        ],
        [
          126.22,
          37.25
        ],
        [
          126.358,
          37.726
        ]
      ]
    ]
  }
}