{
  "type": "Feature",
  "properties": {
    "name": "제주특별자치도",
    "key": "제주"
  },
  "geometry": {
    "type": "Polygon",
    "coordinates": [
      [
        [
          126.15,
          33.55
        ],
        [
          126.3,
          33.25
        ],
        [
          126.6,
          33.1
        ],
        [
          126.95,
          33.15
        ],
        [
          127.2,
          33.35
        ],
        [
          127.25,
          33.55
        ],
        [
          127.1,
          33.7
        ],
        [
          126.8,
          33.8
        ],
        [
          126.5,
          33.75
        ],
        [
          126.2,
          33.7
        ],
        [
          126.15,
          33.55
        ]
      ]
    ]
  }
}