{
  "type": "Feature",
  "properties": {
    "name": "전라도",
    "key": "전라",
    "source": "simplified-approximation",
    "note": "sgis.kostat.go.kr 공식 데이터 교체 권장"
  },
  "geometry": {
    "type": "Polygon",
    "coordinates": [
      [
        [
          126.6,
          36.2
        ],
        [
          126.8,
          36.1
        ],
        [
          127,
          36.05
        ],
        [
          127.25,
          36
        ],
        [
          127.5,
          36.05
        ],
        [
          127.75,
          35.8
        ],
        [
          127.6,
          35.6
        ],
        [
          127.5,
          35.3
        ],
        [
          127.2,
          35.1
        ],
        [
          127,
          35.2
        ],
        [
          126.9,
          35.4
        ],
        [
          126.7,
          34.9
        ],
        [
          126.4,
          34.7
        ],
        [
          126.15,
          34.6
        ],
        [
          125.8,
          34.8
        ],
        [
          125.7,
          35.2
        ],
        [
          125.85,
          35.5
        ],
        [
          126,
          35.8
        ],
        [
          126.15,
          36
        ],
        [
          126.3,
          36.15
        ],
        [
          126.45,
          36.35
        ],
        [
          126.6,
          36.2
        ]
      ]
    ]
  }
}