{
  "type": "Feature",
  "properties": {
    "name": "서울특별시",
    "key": "서울",
    "source": "simplified-approximation",
    "note": "sgis.kostat.go.kr 공식 데이터 교체 권장"
  },
  "geometry": {
    "type": "Polygon",
    "coordinates": [
      [
        [
          127.012,
          37.704
        ],
        [
          127.065,
          37.698
        ],
        [
          127.1,
          37.685
        ],
        [
          127.139,
          37.6665
        ],
        [
          127.176,
          37.634
        ],
        [
          127.189,
          37.599
        ],
        [
          127.187,
          37.561
        ],
        [
          127.185,
          37.54
        ],
        [
          127.168,
          37.505
        ],
        [
          127.148,
          37.474
        ],
        [
          127.107,
          37.445
        ],
        [
          127.065,
          37.434
        ],
        [
          126.996,
          37.428
        ],
        [
          126.954,
          37.428
        ],
        [
          126.915,
          37.439
        ],
        [
          126.9,
          37.453
        ],
        [
          126.87,
          37.468
        ],
        [
          126.84,
          37.491
        ],
        [
          126.81,
          37.522
        ],
        [
          126.805,
          37.547
        ],
        [
          126.808,
          37.579
        ],
        [
          126.818,
          37.612
        ],
        [
          126.845,
          37.643
        ],
        [
          126.888,
          37.667
        ],
        [
          126.957,
          37.688
        ],
        [
          126.99,
          37.7
        ],
        [
          127.012,
          37.704
        ]
      ]
    ]
  }
}